TIANYAN 01              
1 44881U 19093C   26138.96514787  .00001019  00000+0  12118-3 0  9990
2 44881  97.7540 211.9090 0013515 176.5954 183.5356 14.86467294347076
TIANYAN 02              
1 44882U 19093D   26138.93233041  .00004574  00000+0  32756-3 0  9998
2 44882  97.7928 233.4533 0015264 121.1043 239.1682 15.04822315348213
CBERS 4A                
1 44883U 19093E   26138.98183542  .00000096  00000+0  18596-4 0  9996
2 44883  97.7508 207.1554 0000479 310.6955  49.4217 14.81652874346756
WEILAI 1R               
1 44884U 19093F   26138.91290014  .00001946  00000+0  15955-3 0  9993
2 44884  97.7838 228.7661 0016099 126.0640 234.2077 15.00358590348037
FLORIPASAT-1            
1 44885U 19093G   26138.94612941  .00002992  00000+0  22366-3 0  9990
2 44885  97.7901 232.9707 0012259 164.9723 195.1869 15.03518275348253
SHUNTIAN                
1 44886U 19093H   26138.89377111  .00000753  00000+0  74094-4 0  9991
2 44886  97.8006 227.2085 0012198 156.6347 203.5430 14.94992655347804
ELEKTRO-L 3             
1 44903U 19095A   26138.89704588 -.00000095  00000+0  00000+0 0  9996
2 44903   0.1812  80.0675 0000920 316.3890 239.0015  1.00270766 23410
GONETS-M 14             
1 44905U 19096A   26138.90779267  .00000018  00000+0  61966-4 0  9994
2 44905  82.5207 102.7918 0012331 213.4252 146.6051 12.42868916290040
GONETS-M 15             
1 44906U 19096B   26138.93722679  .00000043  00000+0  23821-3 0  9998
2 44906  82.5226 103.2304 0013967 238.5053 121.4663 12.42870268290010
GONETS-M 16             
1 44907U 19096C   26138.88345384  .00000049  00000+0  28345-3 0  9999
2 44907  82.5174 102.2299 0009750 285.8167  74.1837 12.42891019289990
RS-44 & BREEZE-KM R/B   
1 44909U 19096E   26138.84342810  .00000024  00000+0  55898-4 0  9995
2 44909  82.5232 359.2076 0216860 212.7600 145.9900 12.79748245298593
JILIN-1 KUANFU 01       
1 45016U 20003A   26138.87534738  .00002282  00000+0  14208-3 0  9997
2 45016  97.5035 213.4054 0010857  50.6559 309.5631 15.10542536350903
XINGYUN-2 01            
1 45602U 20028A   26138.95184453  .00000943  00000+0  59134-4 0  9999
2 45602  97.4862 131.9363 0007709 314.4475  45.6124 15.11670719330424
XINGYUN-2 02            
1 45603U 20028B   26138.92534308  .00000962  00000+0  60707-4 0  9994
2 45603  97.5074 145.4337 0011655  22.1871 337.9861 15.11406148330417
HAIYANG-1D              
1 45721U 20036A   26138.95004005 -.00000055  00000+0 -44565-5 0  9993
2 45721  98.4552  81.2677 0001664 216.5922 143.5150 14.34161833310781
M2 PATHFINDER           
1 45727U 20037E   26138.25291086  .00001188  00000+0  89307-4 0  9998
2 45727  97.8161 329.1504 0009930 251.4495 108.5652 15.04533933320990
GAOFEN DUOMO (GFDM)     
1 45856U 20042A   26138.93829235  .00000587  00000+0  90565-4 0  9995
2 45856  97.7763 199.8858 0011339 160.1038 200.0617 14.76835216316697
ZIYUAN 3-03 (ZY 3-03)   
1 45939U 20051A   26138.98171228  .00001682  00000+0  77714-4 0  9992
2 45939  97.2848 207.6485 0006941  61.4479 298.7455 15.21507628322906
NEMO-HD                 
1 46277U 20061F   26138.97068706  .00007265  00000+0  16155-3 0  9998
2 46277  97.1933 201.2295 0002589 116.0765 244.0751 15.43953289317475
NAPA-1                  
1 46320U 20061BA  26138.96080840  .00040876  00000+0  43063-3 0  9992
2 46320  97.2483 212.2647 0001821 140.7952 219.3439 15.64166484317168
JILIN-1 GAOFEN 3E       
1 46457U 20065D   26138.94220796  .00037799  00000+0  46370-3 0  9995
2 46457  97.2278 190.9474 0010012 259.8005 100.2123 15.60178496315195
JILIN-1 GAOFEN 3F       
1 46458U 20065E   26138.92080005  .00033728  00000+0  45040-3 0  9992
2 46458  97.2233 188.3898 0011650 248.7702 111.2310 15.57926128315142
JILIN-1 GAOFEN 3G       
1 46459U 20065F   26138.92953182  .00053170  00000+0  51517-3 0  9997
2 46459  97.2306 194.7642 0012664 153.1575 207.0343 15.66127279315358
JILIN-1 GAOFEN 3H       
1 46460U 20065G   26138.90989363  .00044011  00000+0  47331-3 0  9990
2 46460  97.2251 191.2272 0008808 103.0069 257.2175 15.63579197315309
HAIYANG-2C              
1 46469U 20066A   26138.95868634 -.00000168  00000+0 -79083-4 0  9999
2 46469  65.9974 288.0554 0009973 239.7607 120.2475 13.83371548285453
HJ-2A                   
1 46478U 20067A   26138.95810162 -.00000184  00000+0 -19202-4 0  9998
2 46478  97.8832 218.0187 0003780  24.4737 335.6652 14.76568302303941
HJ-2B                   
1 46479U 20067B   26138.92667044  .00000505  00000+0  79579-4 0  9993
2 46479  97.8895 218.9880 0001260  77.2824 282.8526 14.76516206303943
