OBJECT_NAME,OBJECT_ID,EPOCH,MEAN_MOTION,ECCENTRICITY,INCLINATION,RA_OF_ASC_NODE,ARG_OF_PERICENTER,MEAN_ANOMALY,EPHEMERIS_TYPE,CLASSIFICATION_TYPE,NORAD_CAT_ID,ELEMENT_SET_NO,REV_AT_EPOCH,BSTAR,MEAN_MOTION_DOT,MEAN_MOTION_DDOT
TIANYAN 01,2019-093C,2026-05-18T23:09:48.775968,14.86467294,.0013515,97.7540,211.9090,176.5954,183.5356,0,U,44881,999,34707,.12117622E-3,.1019E-4,0
TIANYAN 02,2019-093D,2026-05-18T22:22:33.347424,15.04822315,.0015264,97.7928,233.4533,121.1043,239.1682,0,U,44882,999,34821,.3275585E-3,.4574E-4,0
CBERS 4A,2019-093E,2026-05-18T23:33:50.580288,14.81652874,.00004795,97.7508,207.1554,310.6955,49.4217,0,U,44883,999,34675,.18596153E-4,.96E-6,0
WEILAI 1R,2019-093F,2026-05-18T21:54:34.572096,15.00358590,.00160993,97.7838,228.7661,126.0640,234.2077,0,U,44884,999,34803,.15954771E-3,.1946E-4,0
FLORIPASAT-1,2019-093G,2026-05-18T22:42:25.581024,15.03518275,.00122596,97.7901,232.9707,164.9723,195.1869,0,U,44885,999,34825,.2236616E-3,.2992E-4,0
SHUNTIAN,2019-093H,2026-05-18T21:27:01.823904,14.94992655,.00121984,97.8006,227.2085,156.6347,203.5430,0,U,44886,999,34780,.74093514E-4,.753E-5,0
ELEKTRO-L 3,2019-095A,2026-05-18T21:31:44.764032,1.00270766,.00009207,0.1812,80.0675,316.3890,239.0015,0,U,44903,999,2341,0,-.95E-6,0
GONETS-M 14,2019-096A,2026-05-18T21:47:13.286688,12.42868916,.00123319,82.5207,102.7918,213.4252,146.6051,0,U,44905,999,29004,.61965939E-4,.18E-6,0
GONETS-M 15,2019-096B,2026-05-18T22:29:36.394656,12.42870268,.00139672,82.5226,103.2304,238.5053,121.4663,0,U,44906,999,29001,.23820621E-3,.43E-6,0
GONETS-M 16,2019-096C,2026-05-18T21:12:10.411776,12.42891019,.00097509,82.5174,102.2299,285.8167,74.1837,0,U,44907,999,28999,.28344673E-3,.49E-6,0
RS-44 & BREEZE-KM R/B,2019-096E,2026-05-18T20:14:32.187840,12.79748245,.021686,82.5232,359.2076,212.7600,145.9900,0,U,44909,999,29859,.55898054E-4,.24E-6,0
JILIN-1 KUANFU 01,2020-003A,2026-05-18T21:00:30.013632,15.10542536,.00108572,97.5035,213.4054,50.6559,309.5631,0,U,45016,999,35090,.14207596E-3,.2282E-4,0
XINGYUN-2 01,2020-028A,2026-05-18T22:50:39.367392,15.11670719,.00077099,97.4862,131.9363,314.4475,45.6124,0,U,45602,999,33042,.59133692E-4,.943E-5,0
XINGYUN-2 02,2020-028B,2026-05-18T22:12:29.642112,15.11406148,.00116553,97.5074,145.4337,22.1871,337.9861,0,U,45603,999,33041,.60706756E-4,.962E-5,0
HAIYANG-1D,2020-036A,2026-05-18T22:48:03.460320,14.34161833,.00016648,98.4552,81.2677,216.5922,143.5150,0,U,45721,999,31078,-.4456488E-5,-.55E-6,0
M2 PATHFINDER,2020-037E,2026-05-18T06:04:11.498304,15.04533933,.00099304,97.8161,329.1504,251.4495,108.5652,0,U,45727,999,32099,.89307143E-4,.1188E-4,0
GAOFEN DUOMO (GFDM),2020-042A,2026-05-18T22:31:08.459040,14.76835216,.00113395,97.7763,199.8858,160.1038,200.0617,0,U,45856,999,31669,.9056542E-4,.587E-5,0
ZIYUAN 3-03 (ZY 3-03),2020-051A,2026-05-18T23:33:39.940992,15.21507628,.00069416,97.2848,207.6485,61.4479,298.7455,0,U,45939,999,32290,.77714039E-4,.1682E-4,0
NEMO-HD,2020-061F,2026-05-18T23:17:47.361984,15.43953289,.00025899,97.1933,201.2295,116.0765,244.0751,0,U,46277,999,31747,.16154849E-3,.7265E-4,0
NAPA-1,2020-061BA,2026-05-18T23:03:33.845760,15.64166484,.00018211,97.2483,212.2647,140.7952,219.3439,0,U,46320,999,31716,.43063405E-3,.40876E-3,0
JILIN-1 GAOFEN 3E,2020-065D,2026-05-18T22:36:46.767744,15.60178496,.00100127,97.2278,190.9474,259.8005,100.2123,0,U,46457,999,31519,.46370323E-3,.37799E-3,0
JILIN-1 GAOFEN 3F,2020-065E,2026-05-18T22:05:57.124320,15.57926128,.00116508,97.2233,188.3898,248.7702,111.2310,0,U,46458,999,31514,.45039917E-3,.33728E-3,0
JILIN-1 GAOFEN 3G,2020-065F,2026-05-18T22:18:31.549248,15.66127279,.00126644,97.2306,194.7642,153.1575,207.0343,0,U,46459,999,31535,.51517487E-3,.5317E-3,0
JILIN-1 GAOFEN 3H,2020-065G,2026-05-18T21:50:14.809632,15.63579197,.00088084,97.2251,191.2272,103.0069,257.2175,0,U,46460,999,31530,.47331493E-3,.44011E-3,0
HAIYANG-2C,2020-066A,2026-05-18T23:00:30.499776,13.83371548,.0009973,65.9974,288.0554,239.7607,120.2475,0,U,46469,999,28545,-.79082937E-4,-.168E-5,0
HJ-2A,2020-067A,2026-05-18T22:59:39.979968,14.76568302,.000378,97.8832,218.0187,24.4737,335.6652,0,U,46478,999,30394,-.19201912E-4,-.184E-5,0
HJ-2B,2020-067B,2026-05-18T22:14:24.326016,14.76516206,.00012605,97.8895,218.9880,77.2824,282.8526,0,U,46479,999,30394,.79578856E-4,.505E-5,0
